{
  "type": "FeatureCollection",
  "features": [
    {
      "type": "Feature",
      "properties": {
        "norad_id": 41330,
        "name": "COSMOS 2514 (751)",
        "group": "gnss",
        "lat": -58.111448128349934,
        "lon": -88.80868910879565,
        "alt_km": 19125.77821601208,
        "timestamp": "2025-12-13T08:49:15.928819+00:00",
        "meta_object_name": "COSMOS 2514 (751)",
        "meta_object_id": "2016-008A",
        "meta_epoch": "2025-12-11T02:40:55.560288",
        "meta_mean_motion": 2.13102604,
        "meta_eccentricity": 0.0012161,
        "meta_inclination": 65.1347,
        "meta_ra_of_asc_node": 319.4596,
        "meta_arg_of_pericenter": 220.0573,
        "meta_mean_anomaly": 139.8518,
        "meta_ephemeris_type": 0,
        "meta_classification_type": "U",
        "meta_norad_cat_id": 41330,
        "meta_element_set_no": 999,
        "meta_rev_at_epoch": 7661,
        "meta_bstar": 0,
        "meta_mean_motion_dot": -5.2e-07,
        "meta_mean_motion_ddot": 0,
        "tle_line1": "1 41330U 16008A   25345.11175417 -.00000052  00000+0  00000+0 0  9998",
        "tle_line2": "2 41330  65.1347 319.4596 0012161 220.0573 139.8518  2.13102604 76610"
      },
      "geometry": {
        "type": "Point",
        "coordinates": [
          -88.80868910879565,
          -58.111448128349934
        ]
      }
    },
    {
      "type": "Feature",
      "properties": {
        "norad_id": 41384,
        "name": "IRNSS-1F",
        "group": "gnss",
        "lat": 2.738649211141053,
        "lon": -113.07070616806719,
        "alt_km": 35707.245809976506,
        "timestamp": "2025-12-13T08:49:15.928831+00:00",
        "meta_object_name": "IRNSS-1F",
        "meta_object_id": "2016-015A",
        "meta_epoch": "2025-12-12T22:11:41.184672",
        "meta_mean_motion": 1.00272627,
        "meta_eccentricity": 0.00225576,
        "meta_inclination": 4.8811,
        "meta_ra_of_asc_node": 101.2957,
        "meta_arg_of_pericenter": 180.6995,
        "meta_mean_anomaly": 165.1529,
        "meta_ephemeris_type": 0,
        "meta_classification_type": "U",
        "meta_norad_cat_id": 41384,
        "meta_element_set_no": 999,
        "meta_rev_at_epoch": 3579,
        "meta_bstar": 0,
        "meta_mean_motion_dot": 1.71e-06,
        "meta_mean_motion_ddot": 0,
        "tle_line1": "1 41384U 16015A   25346.92478223  .00000171  00000+0  00000+0 0  9997",
        "tle_line2": "2 41384   4.8811 101.2957 0022557 180.6995 165.1529  1.00272627 35798"
      },
      "geometry": {
        "type": "Point",
        "coordinates": [
          -113.07070616806719,
          2.738649211141053
        ]
      }
    },
    {
      "type": "Feature",
      "properties": {
        "norad_id": 41434,
        "name": "BEIDOU-2 IGSO-6 (C13)",
        "group": "gnss",
        "lat": -59.9279456019148,
        "lon": -53.86192678511904,
        "alt_km": 35583.944859457275,
        "timestamp": "2025-12-13T08:49:15.928843+00:00",
        "meta_object_name": "BEIDOU-2 IGSO-6 (C13)",
        "meta_object_id": "2016-021A",
        "meta_epoch": "2025-12-11T15:29:12.615360",
        "meta_mean_motion": 1.00293077,
        "meta_eccentricity": 0.00608616,
        "meta_inclination": 59.9644,
        "meta_ra_of_asc_node": 39.9082,
        "meta_arg_of_pericenter": 229.9753,
        "meta_mean_anomaly": 135.9177,
        "meta_ephemeris_type": 0,
        "meta_classification_type": "U",
        "meta_norad_cat_id": 41434,
        "meta_element_set_no": 999,
        "meta_rev_at_epoch": 3560,
        "meta_bstar": 0,
        "meta_mean_motion_dot": -1.62e-06,
        "meta_mean_motion_ddot": 0,
        "tle_line1": "1 41434U 16021A   25345.64528490 -.00000162  00000+0  00000+0 0  9991",
        "tle_line2": "2 41434  59.9644  39.9082 0060861 229.9753 135.9177  1.00293077 35600"
      },
      "geometry": {
        "type": "Point",
        "coordinates": [
          -53.86192678511904,
          -59.9279456019148
        ]
      }
    },
    {
      "type": "Feature",
      "properties": {
        "norad_id": 41469,
        "name": "IRNSS-1G",
        "group": "gnss",
        "lat": -4.17413051849459,
        "lon": -16.148131522813564,
        "alt_km": 35785.13022884975,
        "timestamp": "2025-12-13T08:49:15.928858+00:00",
        "meta_object_name": "IRNSS-1G",
        "meta_object_id": "2016-027A",
        "meta_epoch": "2025-12-12T21:51:51.512832",
        "meta_mean_motion": 1.0028008,
        "meta_eccentricity": 0.000258,
        "meta_inclination": 4.7341,
        "meta_ra_of_asc_node": 102.0928,
        "meta_arg_of_pericenter": 335.8281,
        "meta_mean_anomaly": 101.2265,
        "meta_ephemeris_type": 0,
        "meta_classification_type": "U",
        "meta_norad_cat_id": 41469,
        "meta_element_set_no": 999,
        "meta_rev_at_epoch": 3531,
        "meta_bstar": 0,
        "meta_mean_motion_dot": -3.22e-06,
        "meta_mean_motion_ddot": 0,
        "tle_line1": "1 41469U 16027A   25346.91101288 -.00000322  00000+0  00000+0 0  9996",
        "tle_line2": "2 41469   4.7341 102.0928 0002580 335.8281 101.2265  1.00280080 35310"
      },
      "geometry": {
        "type": "Point",
        "coordinates": [
          -16.148131522813564,
          -4.17413051849459
        ]
      }
    },
    {
      "type": "Feature",
      "properties": {
        "norad_id": 41549,
        "name": "GSAT0211 (GALILEO 14)",
        "group": "gnss",
        "lat": -33.32187769327757,
        "lon": -160.41856380658263,
        "alt_km": 23220.420923537098,
        "timestamp": "2025-12-13T08:49:15.928870+00:00",
        "meta_object_name": "GSAT0211 (GALILEO 14)",
        "meta_object_id": "2016-030A",
        "meta_epoch": "2025-12-11T02:09:03.353760",
        "meta_mean_motion": 1.70473055,
        "meta_eccentricity": 0.00041282,
        "meta_inclination": 55.1527,
        "meta_ra_of_asc_node": 226.8689,
        "meta_arg_of_pericenter": 18.4657,
        "meta_mean_anomaly": 341.6286,
        "meta_ephemeris_type": 0,
        "meta_classification_type": "U",
        "meta_norad_cat_id": 41549,
        "meta_element_set_no": 999,
        "meta_rev_at_epoch": 5946,
        "meta_bstar": 0,
        "meta_mean_motion_dot": 9e-08,
        "meta_mean_motion_ddot": 0,
        "tle_line1": "1 41549U 16030A   25345.08962215  .00000009  00000+0  00000+0 0  9992",
        "tle_line2": "2 41549  55.1527 226.8689 0004128  18.4657 341.6286  1.70473055 59463"
      },
      "geometry": {
        "type": "Point",
        "coordinates": [
          -160.41856380658263,
          -33.32187769327757
        ]
      }
    },
    {
      "type": "Feature",
      "properties": {
        "norad_id": 41550,
        "name": "GSAT0210 (GALILEO 13)",
        "group": "gnss",
        "lat": 16.24991593551616,
        "lon": 35.105838541117684,
        "alt_km": 23219.85573352162,
        "timestamp": "2025-12-13T08:49:15.928902+00:00",
        "meta_object_name": "GSAT0210 (GALILEO 13)",
        "meta_object_id": "2016-030B",
        "meta_epoch": "2025-12-11T08:19:41.751264",
        "meta_mean_motion": 1.70473653,
        "meta_eccentricity": 0.00011945,
        "meta_inclination": 55.152,
        "meta_ra_of_asc_node": 226.8599,
        "meta_arg_of_pericenter": 242.2312,
        "meta_mean_anomaly": 117.8354,
        "meta_ephemeris_type": 0,
        "meta_classification_type": "U",
        "meta_norad_cat_id": 41550,
        "meta_element_set_no": 999,
        "meta_rev_at_epoch": 5946,
        "meta_bstar": 0,
        "meta_mean_motion_dot": 1e-07,
        "meta_mean_motion_ddot": 0,
        "tle_line1": "1 41550U 16030B   25345.34701101  .00000010  00000+0  00000+0 0  9990",
        "tle_line2": "2 41550  55.1520 226.8599 0001194 242.2312 117.8354  1.70473653 59466"
      },
      "geometry": {
        "type": "Point",
        "coordinates": [
          35.105838541117684,
          16.24991593551616
        ]
      }
    },
    {
      "type": "Feature",
      "properties": {
        "norad_id": 41586,
        "name": "BEIDOU-2 G7 (C03)",
        "group": "gnss",
        "lat": -1.7191769250688043,
        "lon": -35.032078815653136,
        "alt_km": 35791.54920156602,
        "timestamp": "2025-12-13T08:49:15.928918+00:00",
        "meta_object_name": "BEIDOU-2 G7 (C03)",
        "meta_object_id": "2016-037A",
        "meta_epoch": "2025-12-13T00:54:38.886048",
        "meta_mean_motion": 1.0026712,
        "meta_eccentricity": 0.00045311,
        "meta_inclination": 1.7581,
        "meta_ra_of_asc_node": 67.7678,
        "meta_arg_of_pericenter": 358.8188,
        "meta_mean_anomaly": 139.4696,
        "meta_ephemeris_type": 0,
        "meta_classification_type": "U",
        "meta_norad_cat_id": 41586,
        "meta_element_set_no": 999,
        "meta_rev_at_epoch": 502,
        "meta_bstar": 0,
        "meta_mean_motion_dot": -3.4e-06,
        "meta_mean_motion_ddot": 0,
        "tle_line1": "1 41586U 16037A   25347.03795007 -.00000340  00000+0  00000+0 0  9999",
        "tle_line2": "2 41586   1.7581  67.7678 0004531 358.8188 139.4696  1.00267120  5027"
      },
      "geometry": {
        "type": "Point",
        "coordinates": [
          -35.032078815653136,
          -1.7191769250688043
        ]
      }
    }
  ]
}